STARLINK-30521          
1 57966U 23151C   26068.13170808 -.00004893  00000+0 -16835-3 0  9996
2 57966  43.0018 338.9336 0002016 248.1219 111.9418 15.27587305135683
XCUBE-1                 
1 62400U 24247Z   26068.48297321  .00009773  00000+0  36224-3 0  9994
2 62400  44.9938 117.7807 0005235 331.1499  28.9094 15.27910558 67702
